OBJECT_NAME,OBJECT_ID,EPOCH,MEAN_MOTION,ECCENTRICITY,INCLINATION,RA_OF_ASC_NODE,ARG_OF_PERICENTER,MEAN_ANOMALY,EPHEMERIS_TYPE,CLASSIFICATION_TYPE,NORAD_CAT_ID,ELEMENT_SET_NO,REV_AT_EPOCH,BSTAR,MEAN_MOTION_DOT,MEAN_MOTION_DDOT
WGS F8 (USA 272),2016-075A,2026-07-18T13:25:38.792928,1.00270764,.00001053,0.0217,51.1463,329.2778,267.1629,0,U,41879,999,3513,0,-.21E-5,0
FENGYUN 4A,2016-077A,2026-07-18T05:15:28.651104,1.00266586,.00084089,2.3999,79.9326,159.8070,258.8550,0,U,41882,999,3524,0,-.366E-5,0
CYGFM05,2016-078A,2026-07-17T22:46:48.154944,15.57940504,.00055022,34.9569,56.6818,66.5453,293.5850,0,U,41884,999,53355,.20177682E-3,.15584E-3,0
CYGFM04,2016-078B,2026-07-18T14:04:36.102144,15.63222567,.0004188,34.9328,18.4985,125.4706,234.6411,0,U,41885,999,53391,.21249849E-3,.20138E-3,0
CYGFM02,2016-078C,2026-07-18T14:06:17.724960,15.66534306,.00049114,34.9410,12.0586,127.2650,232.8526,0,U,41886,999,53409,.22674106E-3,.24554E-3,0
CYGFM01,2016-078D,2026-07-18T15:05:06.245664,15.58684264,.00053441,34.9400,52.9684,66.5688,293.5598,0,U,41887,999,53361,.19473453E-3,.15469E-3,0
CYGFM08,2016-078E,2026-07-18T15:49:58.899072,15.61589750,.00059594,34.9435,31.4749,107.4193,252.7184,0,U,41888,999,53389,.20698563E-3,.18401E-3,0
CYGFM07,2016-078G,2026-07-18T14:48:09.917280,15.61698203,.00045556,34.9452,20.0749,125.0241,235.0912,0,U,41890,999,53391,.20841532E-3,.18601E-3,0
CYGFM03,2016-078H,2026-07-18T14:06:44.075232,15.61683312,.00043109,34.9407,22.1955,106.3196,253.8004,0,U,41891,999,53388,.20665373E-3,.18431E-3,0
ECHOSTAR 19,2016-079A,2026-07-18T13:54:30.806208,1.00272049,.0001465,0.0184,57.5020,61.6399,288.7643,0,U,41893,999,3501,0,-.146E-5,0
ARASE (ERG),2016-080A,2026-07-17T14:35:31.671744,2.57753167,.6986567,31.9582,356.2943,65.8693,349.9373,0,U,41896,999,8906,.75448E-3,.176E-5,0
TANSAT,2016-081A,2026-07-18T15:18:08.514720,14.59972367,.00196084,98.5372,200.8266,208.9935,151.0176,0,U,41898,999,50921,.20631279E-4,.48E-6,0
YIJIAN,2016-081B,2026-07-18T10:22:40.179072,14.60798151,.00201756,98.5393,198.3015,209.2106,150.7967,0,U,41899,999,50915,.5499682E-4,.218E-5,0
SPARK 1,2016-081C,2026-07-18T09:36:19.556640,14.59818506,.002278,98.5503,194.8411,221.5287,138.4182,0,U,41900,999,50882,.50661187E-4,.192E-5,0
SPARK 2,2016-081D,2026-07-18T04:43:24.634560,14.59193233,.00243334,98.5508,189.8936,226.8540,133.0625,0,U,41901,999,50864,.52615505E-4,.198E-5,0
JCSAT-110A (JCSAT-15),2016-082A,2026-07-18T15:24:25.235136,1.00271687,.00006011,0.0205,53.9879,77.6095,146.0168,0,U,41903,999,3507,0,-.358E-5,0
STAR ONE D1,2016-082B,2026-07-18T12:49:36.647616,1.00270363,.00022472,0.0068,319.7448,159.2476,285.7479,0,U,41904,999,3508,0,-.218E-5,0
TJS-2,2017-001A,2026-07-18T11:49:47.324640,1.00271535,.00008101,0.9123,84.9093,98.5142,356.8441,0,U,41911,999,3503,0,-.14E-6,0
JILIN-1 03,2017-002B,2026-07-18T13:33:39.819744,15.42283654,.00077051,97.1954,206.2234,70.4297,289.7782,0,U,41914,999,52669,.17237239E-3,.7339E-4,0
IRIDIUM 106,2017-003A,2026-07-18T15:08:26.278944,14.34217766,.00023222,86.3938,75.4077,93.5011,266.6451,0,U,41917,999,49771,.18213741E-4,.71E-6,0
IRIDIUM 103,2017-003B,2026-07-18T14:50:10.183488,14.34217601,.00018776,86.3935,75.3125,85.0263,275.1147,0,U,41918,999,49773,-.3212126E-5,.11E-6,0
IRIDIUM 109,2017-003C,2026-07-18T04:56:30.195456,14.34217408,.0002039,86.3941,75.5447,85.4150,274.7279,0,U,41919,999,49764,-.27513931E-4,-.57E-6,0
IRIDIUM 102,2017-003D,2026-07-18T14:13:38.207712,14.34217260,.00022796,86.3940,75.3058,82.3825,277.7629,0,U,41920,999,49778,.33862504E-4,.115E-5,0
IRIDIUM 105,2017-003E,2026-07-18T01:30:44.973792,14.34217460,.00021038,86.3943,43.9554,81.4042,278.7392,0,U,41921,999,49956,.29817038E-4,.103E-5,0
IRIDIUM 104,2017-003F,2026-07-18T04:29:06.221184,14.34217480,.00019528,86.3937,75.5192,79.6419,280.4997,0,U,41922,999,49771,.19752809E-4,.75E-6,0
IRIDIUM 114,2017-003G,2026-07-18T04:38:14.291808,14.34218072,.00020577,86.3939,75.4996,84.9390,275.2041,0,U,41923,999,49769,.39770259E-4,.131E-5,0
IRIDIUM 108,2017-003H,2026-07-18T13:41:18.491424,14.34217532,.00022313,86.3935,43.6311,86.1785,273.9666,0,U,41924,999,49960,-.3712876E-5,.9E-7,0
IRIDIUM 112,2017-003J,2026-07-18T14:22:46.268832,14.34217351,.00021588,86.3933,75.1701,84.4186,275.7256,0,U,41925,999,49777,.22216517E-4,.82E-6,0
IRIDIUM 111,2017-003K,2026-07-18T14:04:30.226080,14.34217815,.00021967,86.3936,75.2469,86.7394,273.4053,0,U,41926,999,49775,.4110637E-5,.31E-6,0
SBIRS GEO-4 (USA 273),2017-004A,2026-07-18T13:19:33.777120,1.00280615,.00027163,2.3028,44.0757,66.8732,47.0588,0,U,41937,999,3491,0,.12E-5,0
HISPASAT 36W-1,2017-006A,2026-07-18T07:55:15.813696,1.00272984,.00010683,0.0162,292.4589,182.9190,263.5681,0,U,41942,999,3455,0,-.252E-5,0
TELKOM 3S,2017-007A,2026-07-18T13:06:38.697408,1.00269787,.00024514,0.0152,65.8963,53.2161,131.9067,0,U,41944,999,3445,0,0,0
INTELSAT 32E (IS-32E),2017-007B,2026-07-18T11:18:35.316576,1.00265377,.0000832,0.0183,53.6670,328.3581,40.7203,0,U,41945,999,3453,0,0,0
CARTOSAT-2D,2017-008A,2026-07-18T15:23:22.559712,15.19300168,.0006213,97.4083,258.3567,129.5074,230.6711,0,U,41948,999,52235,.13393018E-3,.276E-4,0
SENTINEL-2B,2017-013A,2026-07-18T14:32:48.228000,14.30817189,.00012214,98.5682,273.9358,92.5391,267.5932,0,U,42063,999,48913,.18226133E-3,.434E-5,0
ECHOSTAR 23,2017-014A,2026-07-18T10:59:29.647392,1.00272050,.00021932,0.0191,51.2514,62.1594,237.8165,0,U,42070,999,3423,0,-.65E-6,0
WGS F9 (USA 275),2017-016A,2026-07-18T09:44:47.436576,1.00270319,.0000142,0.0196,56.4928,163.8131,210.1391,0,U,42075,999,3420,0,0,0
SES-10,2017-017A,2026-07-18T12:54:21.193920,1.00272632,.00027197,0.0173,49.3651,70.7771,302.8861,0,U,42432,999,3406,0,-.28E-5,0
CHINASAT 16 (SJ-13),2017-018A,2026-07-18T06:54:21.413376,1.00273710,.00048912,0.0900,88.7932,131.8181,289.5920,0,U,42662,999,3406,0,-.36E-5,0
KOREASAT 7,2017-023A,2026-07-18T13:46:34.179744,1.00273162,.00008471,0.0193,352.7807,114.8133,151.3164,0,U,42691,999,3368,0,-.369E-5,0
SGDC,2017-023B,2026-07-17T09:18:39.096000,1.00269933,.00023359,0.0141,329.5014,152.7703,237.7304,0,U,42692,999,3371,0,-.259E-5,0
GSAT-9,2017-024A,2026-07-18T11:58:34.043232,1.00255861,.00037701,0.0949,90.7903,52.4714,69.9280,0,U,42695,999,3361,0,-.29E-5,0
INMARSAT 5-F4,2017-025A,2026-07-18T04:21:38.706336,1.00272215,.00004524,0.0196,50.5838,126.3115,241.0035,0,U,42698,999,3358,0,.67E-6,0
SES-15,2017-026A,2026-07-18T14:15:38.763360,1.00268239,.00004191,0.0275,325.4278,131.0445,284.6731,0,U,42709,999,774,0,.53E-6,0
COSMOS 2518,2017-027A,2026-07-14T23:34:09.609888,2.00782992,.69584852,63.0301,245.0764,273.7616,16.0557,0,U,42719,999,6696,0,-.559E-5,0
QZS-2 (MICHIBIKI-2),2017-028A,2026-07-18T10:31:10.662240,1.00275918,.07571283,39.3821,242.6931,269.6378,84.1694,0,U,42738,999,794,0,-.149E-5,0
VIASAT-2,2017-029A,2026-07-18T12:53:36.265920,1.00267535,.00002719,0.0218,299.3789,229.6776,250.7744,0,U,42740,999,3351,0,-.272E-5,0
EUTELSAT 172B,2017-029B,2026-07-18T13:10:38.881632,1.00271425,.00000549,0.0268,121.3832,220.7726,323.8370,0,U,42741,999,3405,0,-.13E-6,0
GSAT-19,2017-031A,2026-07-18T13:27:10.547136,1.00270877,.00062916,0.0473,89.5209,1.9635,94.5254,0,U,42747,999,3346,0,.118E-5,0
ECHOSTAR 21,2017-032A,2026-07-18T13:16:26.575968,1.00270831,.00022755,1.7705,357.7419,108.3487,39.6188,0,U,42749,999,3341,0,.59E-6,0
HXMT (HUIYAN),2017-034A,2026-07-18T13:46:49.699776,15.18704649,.00318724,43.0153,8.2384,341.9513,18.0202,0,U,42758,999,50243,.99475076E-4,.188E-4,0
CARTOSAT-2E,2017-036C,2026-07-18T14:14:12.810912,15.19268367,.00035627,97.4253,258.8749,175.5437,184.5831,0,U,42767,999,50291,.89674717E-4,.1823E-4,0
BULGARIASAT-1,2017-038A,2026-07-18T09:48:32.078304,1.00271969,.00030318,0.0114,28.7126,94.1403,322.3834,0,U,42801,999,3315,0,.3E-7,0
IRIDIUM 113,2017-039A,2026-07-18T06:53:47.167872,14.34217685,.00021363,86.3992,309.1808,92.9199,267.2241,0,U,42803,999,47564,.16551972E-4,.66E-6,0
IRIDIUM 123,2017-039B,2026-07-18T07:53:30.917184,14.34217255,.00020505,86.3990,340.6197,97.5114,262.6315,0,U,42804,999,47441,-.454338E-5,.7E-7,0
IRIDIUM 120,2017-039C,2026-07-18T13:26:31.212672,14.34218038,.00024024,86.3980,308.8452,97.0324,263.1145,0,U,42805,999,47567,.7995417E-5,.42E-6,0
IRIDIUM 115,2017-039D,2026-07-18T14:16:29.952768,14.43278689,.00023019,86.4518,308.9638,99.4206,260.7255,0,U,42806,999,47879,.48328471E-4,.183E-5,0
IRIDIUM 118,2017-039E,2026-07-18T08:39:10.995552,14.34217765,.00022194,86.3995,340.6043,92.2966,267.8484,0,U,42807,999,47441,.11233145E-4,.51E-6,0
IRIDIUM 117,2017-039F,2026-07-18T09:06:34.890336,14.34217695,.00021664,86.3995,340.5535,94.2000,265.9443,0,U,42808,999,47444,.16784487E-4,.67E-6,0
IRIDIUM 126,2017-039G,2026-07-18T08:02:38.943744,14.34217553,.00019773,86.3991,340.6241,92.7302,267.4120,0,U,42809,999,47441,-.2058523E-5,.14E-6,0
IRIDIUM 124,2017-039H,2026-07-18T06:01:47.688096,14.43274963,.00022524,86.4480,277.3709,97.1431,263.0026,0,U,42810,999,47959,.46117936E-4,.175E-5,0
IRIDIUM 128,2017-039J,2026-07-18T11:10:14.989728,14.34217649,.00022829,86.3969,12.0693,93.5669,266.5788,0,U,42811,999,47446,.27183621E-4,.96E-6,0
IRIDIUM 121,2017-039K,2026-07-18T01:48:10.970208,14.34217651,.00022312,86.3996,340.7604,92.7470,267.3981,0,U,42812,999,47425,.4526831E-5,.32E-6,0
HELLAS-SAT 3,2017-040A,2026-07-18T11:42:03.067200,1.00273305,.00032621,0.0570,54.7721,24.0143,72.0072,0,U,42814,999,3312,0,.145E-5,0
GSAT-17,2017-040B,2026-07-18T13:40:09.768000,1.00272017,.00022455,0.0515,255.5399,23.6641,315.6835,0,U,42815,999,3310,0,-.265E-5,0
INTELSAT 35E (IS-35E),2017-041A,2026-07-18T11:20:57.589728,1.00272694,.00019348,0.0177,59.5792,58.5100,313.9219,0,U,42818,999,3312,0,-.245E-5,0
KANOPUS-V-IK,2017-042A,2026-07-18T15:08:16.315296,15.22942956,.00017609,97.3546,104.5170,90.0464,270.0974,0,U,42825,999,50015,.41913691E-4,.915E-5,0
NORSAT 1,2017-042B,2026-07-18T11:06:36.444384,15.14416693,.00062455,97.4473,6.4920,346.3786,13.7276,0,U,42826,999,49196,.18053495E-3,.3252E-4,0
